DTC TEST OBJECT A       
1 69472U 26128A   26189.76130142  .00006782  00000+0  11225-3 0  9993
2 69472  55.0004 205.4643 0010967 354.4875   5.6037 15.53460132  4585
DTC TEST OBJECT B       
1 69473U 26128B   26178.37654890  .00024134  00000+0  33565-3 0  9992
2 69473  55.0021 257.9040 0009934 325.3113  34.7274 15.56860342  2801
TJS-25                  
1 69474U 26129A   26189.80850003 -.00000355  00000+0  00000+0 0  9992
2 69474   5.9610 330.3036 0003085 281.8708  85.8229  1.00266606   282
STARLINK-37816          
1 69478U 26131A   26189.91668981 -.02342681  00000+0 -25823-1 0  9999
2 69478  97.2844 211.4277 0001151  85.0312 292.5133 15.66258875  5509
STARLINK-37878          
1 69479U 26131B   26189.91668981 -.02237194  00000+0 -19784-1 0  9991
2 69479  97.2849 211.4320 0001142  83.5428 308.1961 15.71978912  4368
STARLINK-37817          
1 69480U 26131C   26188.00032921  .00321772  00000+0  16094-2 0  9995
2 69480  97.2843 209.4321 0001058 136.5615 223.5737 15.80951429  5293
STARLINK-37727          
1 69481U 26131D   26189.91668981 -.02400430  00000+0 -26986-1 0  9991
2 69481  97.2856 211.4321 0001212  69.0326 318.7427 15.65852671  5501
STARLINK-37814          
1 69482U 26131E   26189.91668981 -.02207506  00000+0 -19520-1 0  9997
2 69482  97.2845 211.4523 0001373  69.8116   8.7886 15.71929312  5506
STARLINK-37869          
1 69483U 26131F   26189.91668981 -.02208578  00000+0 -22463-1 0  9998
2 69483  97.2847 211.4467 0001257  73.5444 349.5696 15.68594044  5504
STARLINK-37873          
1 69484U 26131G   26189.91668981 -.01585840  00000+0 -14901-1 0  9996
2 69484  97.2843 211.4497 0001547  60.6496  15.1787 15.69941359  5503
STARLINK-37892          
1 69485U 26131H   26189.91668981 -.02556651  00000+0 -21797-1 0  9997
2 69485  97.2840 211.4596 0001672  62.7203  35.6363 15.72725160  5500
STARLINK-37893          
1 69486U 26131J   26187.55271518  .00183522  00000+0  93924-3 0  9994
2 69486  97.2853 208.9693 0001379  94.8147 265.3279 15.80806533  5221
STARLINK-37842          
1 69487U 26131K   26189.91668981 -.00687945  00000+0 -68487-2 0  9996
2 69487  97.2849 211.4491 0001198  62.5466   5.4458 15.67694390  5501
STARLINK-37449          
1 69488U 26131L   26189.91668981 -.02565762  00000+0 -21660-1 0  9992
2 69488  97.2843 211.4640 0001675  64.6864  46.1319 15.72966941  5583
STARLINK-37831          
1 69489U 26131M   26189.91668981 -.02403207  00000+0 -26975-1 0  9992
2 69489  97.2845 211.4417 0001274  75.9093 333.1274 15.65895360  4139
STARLINK-37879          
1 69490U 26131N   26189.91668981 -.02590984  00000+0 -24437-1 0  9994
2 69490  97.2844 211.4542 0001883  62.6986  24.9853 15.70387646  5508
STARLINK-37856          
1 69491U 26131P   26188.82386929  .00222266  00000+0  11593-2 0  9994
2 69491  97.2869 210.2974 0017313 301.6612  58.2966 15.80082279  5420
STARLINK-37568          
1 69492U 26131Q   26189.91668981 -.02366625  00000+0 -25059-1 0  9990
2 69492  97.2848 211.4578 0001396  53.2589  34.6568 15.67280684  5586
STARLINK-37855          
1 69493U 26131R   26189.32679978  .00328680  00000+0  16402-2 0  9992
2 69493  97.2844 210.8414 0003113 120.2922 239.8654 15.80982862  5509
STARLINK-37854          
1 69494U 26131S   26189.91668981 -.02498526  00000+0 -20357-1 0  9994
2 69494  97.2840 211.4560 0001641  67.1654  23.6978 15.74306254  5562
STARLINK-37789          
1 69495U 26131T   26189.91668981 -.02428964  00000+0 -23676-1 0  9991
2 69495  97.2842 211.4666 0001639  71.6712  46.0211 15.69376199  5584
STARLINK-37839          
1 69496U 26131U   26189.91668981 -.02478225  00000+0 -22541-1 0  9997
2 69496  97.2842 211.4558 0001669  66.6473  23.6077 15.71096173  5569
STARLINK-37798          
1 69497U 26131V   26189.91668981 -.02458870  00000+0 -23822-1 0  9995
2 69497  97.2844 211.4697 0001823  68.8898  54.9069 15.69561998  5560
STARLINK-37853          
1 69498U 26131W   26189.94785843 -.00619698  00000+0 -39782-2 0  9994
2 69498  97.2847 211.5282 0000663  97.0778 263.0564 15.77802616  4349
STARLINK-37849          
1 69499U 26131X   26189.91668981 -.02434179  00000+0 -27045-1 0  9994
2 69499  97.2846 211.4684 0001686  59.1930  54.2786 15.66188590  5588
STARLINK-37835          
1 69500U 26131Y   26189.91668981 -.02353776  00000+0 -25307-1 0  9999
2 69500  97.2846 211.4660 0001697  56.8353  53.0184 15.66883006  4470
STARLINK-37843          
1 69501U 26131Z   26189.91668981 -.02360937  00000+0 -26710-1 0  9996
2 69501  97.2845 211.4631 0001600  47.2949  54.6097 15.65634961  5561
STARS-X                 
1 69502U 26132A   26189.71532644  .00001347  00000+0  11559-3 0  9992
2 69502  97.6882 253.1049 0013967 188.2770 171.8225 14.99096206  4003
PETREL                  
1 69503U 26132B   26189.91402966  .00001010  00000+0  87718-4 0  9996
2 69503  97.6911 253.3149 0013871 189.4627 170.6337 14.99175361  4032
BRO-22                  
1 69504U 26132C   26189.90289229  .00000787  00000+0  68330-4 0  9990
2 69504  97.6833 253.3050 0015884 203.7127 156.3366 14.99794916  4034
